{"fetched_at":"2026-07-09T08:01:02.441Z","source":"https://celestrak.org/NORAD/elements/gp.php?NAME=LEGION&FORMAT=JSON","constellation":"maxar-legion","records":[{"OBJECT_NAME":"LEGION 1","OBJECT_ID":"2024-081A","EPOCH":"2026-07-08T22:22:08.787360","CLASSIFICATION_TYPE":"U","MEAN_MOTION":15.16816803,"ECCENTRICITY":0.00077784,"INCLINATION":97.501,"RA_OF_ASC_NODE":267.5582,"ARG_OF_PERICENTER":295.8566,"MEAN_ANOMALY":64.1864,"EPHEMERIS_TYPE":0,"NORAD_CAT_ID":59625,"ELEMENT_SET_NO":999,"REV_AT_EPOCH":12083,"BSTAR":0.00010660622,"MEAN_MOTION_DOT":0.00002029,"MEAN_MOTION_DDOT":0},{"OBJECT_NAME":"LEGION 2","OBJECT_ID":"2024-081B","EPOCH":"2026-07-08T23:05:46.317696","CLASSIFICATION_TYPE":"U","MEAN_MOTION":15.16795588,"ECCENTRICITY":0.00099002,"INCLINATION":97.501,"RA_OF_ASC_NODE":267.6851,"ARG_OF_PERICENTER":258.0118,"MEAN_ANOMALY":102.0005,"EPHEMERIS_TYPE":0,"NORAD_CAT_ID":59626,"ELEMENT_SET_NO":999,"REV_AT_EPOCH":12084,"BSTAR":0.00012731308,"MEAN_MOTION_DOT":0.00002435,"MEAN_MOTION_DDOT":0},{"OBJECT_NAME":"LEGION 3","OBJECT_ID":"2024-146A","EPOCH":"2026-07-08T17:53:34.714752","CLASSIFICATION_TYPE":"U","MEAN_MOTION":15.15629295,"ECCENTRICITY":0.00087464,"INCLINATION":45.0018,"RA_OF_ASC_NODE":274.9587,"ARG_OF_PERICENTER":300.5893,"MEAN_ANOMALY":59.4123,"EPHEMERIS_TYPE":0,"NORAD_CAT_ID":60452,"ELEMENT_SET_NO":999,"REV_AT_EPOCH":10529,"BSTAR":0.0001164659,"MEAN_MOTION_DOT":0.00001989,"MEAN_MOTION_DDOT":0},{"OBJECT_NAME":"LEGION 4","OBJECT_ID":"2024-146B","EPOCH":"2026-07-08T21:03:42.404832","CLASSIFICATION_TYPE":"U","MEAN_MOTION":15.16208592,"ECCENTRICITY":0.00114876,"INCLINATION":45.0026,"RA_OF_ASC_NODE":6.1229,"ARG_OF_PERICENTER":72.2685,"MEAN_ANOMALY":287.9447,"EPHEMERIS_TYPE":0,"NORAD_CAT_ID":60453,"ELEMENT_SET_NO":999,"REV_AT_EPOCH":10416,"BSTAR":0.00015674838,"MEAN_MOTION_DOT":0.00002818,"MEAN_MOTION_DDOT":0},{"OBJECT_NAME":"LEGION 5","OBJECT_ID":"2025-025A","EPOCH":"2026-07-08T11:36:08.607744","CLASSIFICATION_TYPE":"U","MEAN_MOTION":15.16046257,"ECCENTRICITY":0.00085586,"INCLINATION":45.0001,"RA_OF_ASC_NODE":187.2116,"ARG_OF_PERICENTER":269.0811,"MEAN_ANOMALY":90.9087,"EPHEMERIS_TYPE":0,"NORAD_CAT_ID":62900,"ELEMENT_SET_NO":999,"REV_AT_EPOCH":7772,"BSTAR":0.00010959215,"MEAN_MOTION_DOT":0.0000188,"MEAN_MOTION_DDOT":0},{"OBJECT_NAME":"LEGION 6","OBJECT_ID":"2025-025B","EPOCH":"2026-07-08T22:36:58.403232","CLASSIFICATION_TYPE":"U","MEAN_MOTION":15.15662056,"ECCENTRICITY":0.00107039,"INCLINATION":45.0009,"RA_OF_ASC_NODE":93.878,"ARG_OF_PERICENTER":244.8829,"MEAN_ANOMALY":115.0939,"EPHEMERIS_TYPE":0,"NORAD_CAT_ID":62901,"ELEMENT_SET_NO":999,"REV_AT_EPOCH":7893,"BSTAR":0.00014122796,"MEAN_MOTION_DOT":0.00002471,"MEAN_MOTION_DDOT":0}]}
